STARLINK-32635          
1 62155U 24224S   25130.56650311  .00000350  00000+0  22233-4 0  9994
2 62155  43.0003  77.5568 0000859 281.7827  78.2928 15.27574149 25879
STARLINK-32532          
1 62156U 24224T   25130.52080740 -.00000725  00000+0 -10107-4 0  9999
2 62156  43.0015  71.1558 0001432 267.3137  92.7556 15.40693540 25942
STARLINK-32503          
1 62157U 24224U   25130.55493059 -.00000989  00000+0 -26411-4 0  9991
2 62157  42.9997  77.4742 0001434 269.4194  90.6493 15.27582555 25600
STARLINK-32508          
1 62158U 24224V   25130.23908590  .00000490  00000+0  18997-4 0  9993
2 62158  43.0029  72.4822 0001241 271.4417  88.6297 15.40699703 26069
STARLINK-32524          
1 62159U 24224W   25130.18993641  .00000104  00000+0  13295-4 0  9997
2 62159  42.9990  75.5697 0001224 260.2505  99.8208 15.27578341 25866
STARLINK-32484          
1 62160U 24224X   25129.56765568 -.00258700  00000+0 -74190-2 0  9992
2 62160  43.0068  76.0364 0001727  76.6496 283.4551 15.36183930 25968
STARLINK-32497          
1 62161U 24224Y   25130.18222616  .00000340  00000+0  21874-4 0  9991
2 62161  43.0021  75.5129 0001105 273.2546  86.8179 15.27579172 26017
STARLINK-32526          
1 62162U 24224Z   25130.58335648 -.00001423  00000+0 -42167-4 0  9999
2 62162  43.0018  73.2982 0001712 267.8425 119.5009 15.27585146 26075
STARLINK-32523          
1 62165U 24225C   25130.47006354 -.00000007  00000+0  72103-5 0  9990
2 62165  70.0002 209.0579 0003116 269.5649  90.5153 14.98330400 24455
STARLINK-32551          
1 62166U 24225D   25130.64528507 -.00008791  00000+0 -72904-3 0  9995
2 62166  70.0002 208.4704 0002744 258.6144 101.4707 14.98375773 24475
STARLINK-32506          
1 62167U 24225E   25130.58335648  .00018856  00000+0  15843-2 0  9990
2 62167  70.0020 208.8729 0003448 272.6700 248.3039 14.98318074  5720
STARLINK-32562          
1 62168U 24225F   25130.65781985  .00000646  00000+0  61930-4 0  9996
2 62168  69.9999 208.5074 0003520 267.1871  92.8886 14.98332500 24477
STARLINK-32558          
1 62169U 24225G   25130.59940805 -.00000380  00000+0 -24051-4 0  9998
2 62169  69.9999 208.7060 0002989 267.2511  92.8306 14.98330715 24478
STARLINK-32538          
1 62170U 24225H   25128.60844774  .00574488  00000+0  43372-1 0  9994
2 62170  70.0045 213.8034 0008664 295.1354  64.8906 15.00059307 24175
