[
  {
    "OBJECT_NAME": "STARLINK-32635",
    "OBJECT_ID": "2024-224S",
    "EPOCH": "2025-05-10T13:35:45.868704",
    "MEAN_MOTION": 15.27574149,
    "ECCENTRICITY": 8.59e-05,
    "INCLINATION": 43.0003,
    "RA_OF_ASC_NODE": 77.5568,
    "ARG_OF_PERICENTER": 281.7827,
    "MEAN_ANOMALY": 78.2928,
    "EPHEMERIS_TYPE": 0,
    "CLASSIFICATION_TYPE": "U",
    "NORAD_CAT_ID": 62155,
    "ELEMENT_SET_NO": 999,
    "REV_AT_EPOCH": 2587,
    "BSTAR": 2.2233e-05,
    "MEAN_MOTION_DOT": 3.5e-06,
    "MEAN_MOTION_DDOT": 0
  },
  {
    "OBJECT_NAME": "STARLINK-32532",
    "OBJECT_ID": "2024-224T",
    "EPOCH": "2025-05-10T12:29:57.759360",
    "MEAN_MOTION": 15.4069354,
    "ECCENTRICITY": 0.0001432,
    "INCLINATION": 43.0015,
    "RA_OF_ASC_NODE": 71.1558,
    "ARG_OF_PERICENTER": 267.3137,
    "MEAN_ANOMALY": 92.7556,
    "EPHEMERIS_TYPE": 0,
    "CLASSIFICATION_TYPE": "U",
    "NORAD_CAT_ID": 62156,
    "ELEMENT_SET_NO": 999,
    "REV_AT_EPOCH": 2594,
    "BSTAR": -1.0107e-05,
    "MEAN_MOTION_DOT": -7.25e-06,
    "MEAN_MOTION_DDOT": 0
  },
  {
    "OBJECT_NAME": "STARLINK-32503",
    "OBJECT_ID": "2024-224U",
    "EPOCH": "2025-05-10T13:19:06.002976",
    "MEAN_MOTION": 15.27582555,
    "ECCENTRICITY": 0.0001434,
    "INCLINATION": 42.9997,
    "RA_OF_ASC_NODE": 77.4742,
    "ARG_OF_PERICENTER": 269.4194,
    "MEAN_ANOMALY": 90.6493,
    "EPHEMERIS_TYPE": 0,
    "CLASSIFICATION_TYPE": "U",
    "NORAD_CAT_ID": 62157,
    "ELEMENT_SET_NO": 999,
    "REV_AT_EPOCH": 2560,
    "BSTAR": -2.6411e-05,
    "MEAN_MOTION_DOT": -9.89e-06,
    "MEAN_MOTION_DDOT": 0
  },
  {
    "OBJECT_NAME": "STARLINK-32508",
    "OBJECT_ID": "2024-224V",
    "EPOCH": "2025-05-10T05:44:17.021760",
    "MEAN_MOTION": 15.40699703,
    "ECCENTRICITY": 0.0001241,
    "INCLINATION": 43.0029,
    "RA_OF_ASC_NODE": 72.4822,
    "ARG_OF_PERICENTER": 271.4417,
    "MEAN_ANOMALY": 88.6297,
    "EPHEMERIS_TYPE": 0,
    "CLASSIFICATION_TYPE": "U",
    "NORAD_CAT_ID": 62158,
    "ELEMENT_SET_NO": 999,
    "REV_AT_EPOCH": 2606,
    "BSTAR": 1.8997e-05,
    "MEAN_MOTION_DOT": 4.9e-06,
    "MEAN_MOTION_DDOT": 0
  },
  {
    "OBJECT_NAME": "STARLINK-32524",
    "OBJECT_ID": "2024-224W",
    "EPOCH": "2025-05-10T04:33:30.505824",
    "MEAN_MOTION": 15.27578341,
    "ECCENTRICITY": 0.0001224,
    "INCLINATION": 42.999,
    "RA_OF_ASC_NODE": 75.5697,
    "ARG_OF_PERICENTER": 260.2505,
    "MEAN_ANOMALY": 99.8208,
    "EPHEMERIS_TYPE": 0,
    "CLASSIFICATION_TYPE": "U",
    "NORAD_CAT_ID": 62159,
    "ELEMENT_SET_NO": 999,
    "REV_AT_EPOCH": 2586,
    "BSTAR": 1.3295e-05,
    "MEAN_MOTION_DOT": 1.04e-06,
    "MEAN_MOTION_DDOT": 0
  },
  {
    "OBJECT_NAME": "STARLINK-32484",
    "OBJECT_ID": "2024-224X",
    "EPOCH": "2025-05-09T13:37:25.450752",
    "MEAN_MOTION": 15.3618393,
    "ECCENTRICITY": 0.0001727,
    "INCLINATION": 43.0068,
    "RA_OF_ASC_NODE": 76.0364,
    "ARG_OF_PERICENTER": 76.6496,
    "MEAN_ANOMALY": 283.4551,
    "EPHEMERIS_TYPE": 0,
    "CLASSIFICATION_TYPE": "U",
    "NORAD_CAT_ID": 62160,
    "ELEMENT_SET_NO": 999,
    "REV_AT_EPOCH": 2596,
    "BSTAR": -0.007419,
    "MEAN_MOTION_DOT": -0.002587,
    "MEAN_MOTION_DDOT": 0
  },
  {
    "OBJECT_NAME": "STARLINK-32497",
    "OBJECT_ID": "2024-224Y",
    "EPOCH": "2025-05-10T04:22:24.340224",
    "MEAN_MOTION": 15.27579172,
    "ECCENTRICITY": 0.0001105,
    "INCLINATION": 43.0021,
    "RA_OF_ASC_NODE": 75.5129,
    "ARG_OF_PERICENTER": 273.2546,
    "MEAN_ANOMALY": 86.8179,
    "EPHEMERIS_TYPE": 0,
    "CLASSIFICATION_TYPE": "U",
    "NORAD_CAT_ID": 62161,
    "ELEMENT_SET_NO": 999,
    "REV_AT_EPOCH": 2601,
    "BSTAR": 2.1874e-05,
    "MEAN_MOTION_DOT": 3.4e-06,
    "MEAN_MOTION_DDOT": 0
  },
  {
    "OBJECT_NAME": "STARLINK-32526",
    "OBJECT_ID": "2024-224Z",
    "EPOCH": "2025-05-10T14:00:01.999872",
    "MEAN_MOTION": 15.27585146,
    "ECCENTRICITY": 0.0001712,
    "INCLINATION": 43.0018,
    "RA_OF_ASC_NODE": 73.2982,
    "ARG_OF_PERICENTER": 267.8425,
    "MEAN_ANOMALY": 119.5009,
    "EPHEMERIS_TYPE": 0,
    "CLASSIFICATION_TYPE": "U",
    "NORAD_CAT_ID": 62162,
    "ELEMENT_SET_NO": 999,
    "REV_AT_EPOCH": 2607,
    "BSTAR": -4.2167e-05,
    "MEAN_MOTION_DOT": -1.423e-05,
    "MEAN_MOTION_DDOT": 0
  },
  {
    "OBJECT_NAME": "STARLINK-32523",
    "OBJECT_ID": "2024-225C",
    "EPOCH": "2025-05-10T11:16:53.489856",
    "MEAN_MOTION": 14.983304,
    "ECCENTRICITY": 0.0003116,
    "INCLINATION": 70.0002,
    "RA_OF_ASC_NODE": 209.0579,
    "ARG_OF_PERICENTER": 269.5649,
    "MEAN_ANOMALY": 90.5153,
    "EPHEMERIS_TYPE": 0,
    "CLASSIFICATION_TYPE": "U",
    "NORAD_CAT_ID": 62165,
    "ELEMENT_SET_NO": 999,
    "REV_AT_EPOCH": 2445,
    "BSTAR": 7.2103e-06,
    "MEAN_MOTION_DOT": -7e-08,
    "MEAN_MOTION_DDOT": 0
  },
  {
    "OBJECT_NAME": "STARLINK-32551",
    "OBJECT_ID": "2024-225D",
    "EPOCH": "2025-05-10T15:29:12.630048",
    "MEAN_MOTION": 14.98375773,
    "ECCENTRICITY": 0.0002744,
    "INCLINATION": 70.0002,
    "RA_OF_ASC_NODE": 208.4704,
    "ARG_OF_PERICENTER": 258.6144,
    "MEAN_ANOMALY": 101.4707,
    "EPHEMERIS_TYPE": 0,
    "CLASSIFICATION_TYPE": "U",
    "NORAD_CAT_ID": 62166,
    "ELEMENT_SET_NO": 999,
    "REV_AT_EPOCH": 2447,
    "BSTAR": -0.00072904,
    "MEAN_MOTION_DOT": -8.791e-05,
    "MEAN_MOTION_DDOT": 0
  },
  {
    "OBJECT_NAME": "STARLINK-32506",
    "OBJECT_ID": "2024-225E",
    "EPOCH": "2025-05-10T14:00:01.999872",
    "MEAN_MOTION": 14.98318074,
    "ECCENTRICITY": 0.0003448,
    "INCLINATION": 70.002,
    "RA_OF_ASC_NODE": 208.8729,
    "ARG_OF_PERICENTER": 272.67,
    "MEAN_ANOMALY": 248.3039,
    "EPHEMERIS_TYPE": 0,
    "CLASSIFICATION_TYPE": "U",
    "NORAD_CAT_ID": 62167,
    "ELEMENT_SET_NO": 999,
    "REV_AT_EPOCH": 572,
    "BSTAR": 0.0015843,
    "MEAN_MOTION_DOT": 0.00018856,
    "MEAN_MOTION_DDOT": 0
  },
  {
    "OBJECT_NAME": "STARLINK-32562",
    "OBJECT_ID": "2024-225F",
    "EPOCH": "2025-05-10T15:47:15.635040",
    "MEAN_MOTION": 14.983325,
    "ECCENTRICITY": 0.000352,
    "INCLINATION": 69.9999,
    "RA_OF_ASC_NODE": 208.5074,
    "ARG_OF_PERICENTER": 267.1871,
    "MEAN_ANOMALY": 92.8886,
    "EPHEMERIS_TYPE": 0,
    "CLASSIFICATION_TYPE": "U",
    "NORAD_CAT_ID": 62168,
    "ELEMENT_SET_NO": 999,
    "REV_AT_EPOCH": 2447,
    "BSTAR": 6.193e-05,
    "MEAN_MOTION_DOT": 6.46e-06,
    "MEAN_MOTION_DDOT": 0
  },
  {
    "OBJECT_NAME": "STARLINK-32558",
    "OBJECT_ID": "2024-225G",
    "EPOCH": "2025-05-10T14:23:08.855520",
    "MEAN_MOTION": 14.98330715,
    "ECCENTRICITY": 0.0002989,
    "INCLINATION": 69.9999,
    "RA_OF_ASC_NODE": 208.706,
    "ARG_OF_PERICENTER": 267.2511,
    "MEAN_ANOMALY": 92.8306,
    "EPHEMERIS_TYPE": 0,
    "CLASSIFICATION_TYPE": "U",
    "NORAD_CAT_ID": 62169,
    "ELEMENT_SET_NO": 999,
    "REV_AT_EPOCH": 2447,
    "BSTAR": -2.4051e-05,
    "MEAN_MOTION_DOT": -3.8e-06,
    "MEAN_MOTION_DDOT": 0
  },
  {
    "OBJECT_NAME": "STARLINK-32538",
    "OBJECT_ID": "2024-225H",
    "EPOCH": "2025-05-08T14:36:09.884736",
    "MEAN_MOTION": 15.00059307,
    "ECCENTRICITY": 0.0008664,
    "INCLINATION": 70.0045,
    "RA_OF_ASC_NODE": 213.8034,
    "ARG_OF_PERICENTER": 295.1354,
    "MEAN_ANOMALY": 64.8906,
    "EPHEMERIS_TYPE": 0,
    "CLASSIFICATION_TYPE": "U",
    "NORAD_CAT_ID": 62170,
    "ELEMENT_SET_NO": 999,
    "REV_AT_EPOCH": 2417,
    "BSTAR": 0.043372,
    "MEAN_MOTION_DOT": 0.00574488,
    "MEAN_MOTION_DDOT": 0
  }
]